NSS-11                  
1 26554U 00059A   26179.83916679  .00000034  00000+0  00000+0 0  9995
2 26554   2.1556  81.2627 0003138  12.3411 301.4273  1.00273180 41407
AMC-6                   
1 26580U 00067A   26179.70628691  .00000099  00000+0  00000+0 0  9994
2 26580   0.1809  83.4280 0004016  24.5135 288.0776  1.00273417 94003
AMC-15                  
1 28446U 04041A   26179.99641317 -.00000077  00000+0  00000+0 0  9991
2 28446   0.0164  19.5553 0002533  73.7670  77.4188  1.00272072 79426
NSS-10                  
1 28526U 05003A   26179.96428852 -.00000246  00000+0  00000+0 0  9991
2 28526   6.4777  70.3127 0003158  20.9125 135.5199  1.00271876 53274
ASTRA 1KR               
1 29055U 06012A   26179.87936309  .00000130  00000+0  00000+0 0  9992
2 29055   0.5032  83.2368 0003825   5.9174 163.3882  1.00270075 45818
ASTRA 1L                
1 31306U 07016A   26179.95671588 -.00000174  00000+0  00000+0 0  9992
2 31306   1.3512  81.5024 0005714  18.7667 136.6978  1.00272633 45103
ASTRA 4A                
1 32299U 07057A   26179.87650308  .00000044  00000+0  00000+0 0  9992
2 32299   0.0144 337.1572 0002663 121.0504 139.0933  1.00271724 51765
ASTRA 1M                
1 33436U 08057A   26179.85878066  .00000132  00000+0  00000+0 0  9996
2 33436   0.3257  82.6418 0005007  28.0667 134.7893  1.00270276 45850
NSS-9                   
1 33749U 09008A   26179.84046679  .00000082  00000+0  00000+0 0  9990
2 33749   1.2909  82.5593 0002466   5.3096 314.6976  1.00271283 63630
SES-7 (PROTOSTAR 2)     
1 34941U 09027A   26179.96797978 -.00000333  00000+0  00000+0 0  9994
2 34941   0.0416  69.2224 0000266 345.5837 318.9602  1.00270769 62748
NSS-12                  
1 36032U 09058A   26179.95489498  .00000083  00000+0  00000+0 0  9996
2 36032   0.0715 276.9522 0005031 149.5064 251.3408  1.00271202 61038
SES-1                   
1 36516U 10016A   26179.17614291 -.00000103  00000+0  00000+0 0  9998
2 36516   0.0261 307.8710 0003001 144.5021 146.3114  1.00272007 59147
ASTRA 3B                
1 36581U 10021A   26179.89862308  .00000147  00000+0  00000+0 0  9996
2 36581   1.4992  83.4181 0004207  11.2093 169.3620  1.00269503 58987
SES-3                   
1 37748U 11035A   26179.92648976 -.00000092  00000+0  00000+0 0  9995
2 37748   1.3562  82.9757 0002495   4.0466  60.5266  1.00272540 54719
ASTRA 1N                
1 37775U 11041A   26179.95061895  .00000131  00000+0  00000+0 0  9997
2 37775   0.0842  40.2456 0005963  56.4470 181.7434  1.00271414 44641
SES-2                   
1 37809U 11049A   26179.92969644 -.00000185  00000+0  00000+0 0  9999
2 37809   0.0894  93.9638 0003122   1.8577  68.8882  1.00271837 54080
QUETZSAT 1              
1 37826U 11054A   26179.93160311 -.00000230  00000+0  00000+0 0  9990
2 37826   0.0113 347.9711 0002996 113.6783  73.7576  1.00271821 49998
SES-4                   
1 38087U 12007A   26179.37215977 -.00000156  00000+0  00000+0 0  9993
2 38087   0.0206  40.7101 0002486  57.0950 290.6479  1.00271974 52336
SES-5                   
1 38652U 12036A   26179.59144948  .00000046  00000+0  00000+0 0  9993
2 38652   0.0463 317.3630 0002275 142.1245  35.0952  1.00273335 44575
ASTRA 2F                
1 38778U 12051A   26179.95248553  .00000161  00000+0  00000+0 0  9994
2 38778   0.0793 256.1696 0002091 271.9264 120.0389  1.00270737 41254
SES-6                   
1 39172U 13026A   26179.65359319 -.00000250  00000+0  00000+0 0  9996
2 39172   0.0198  22.2097 0002933  80.5765   8.7480  1.00270302 47847
O3B FM5                 
1 39188U 13031A   26179.83352364 -.00000021  00000+0  00000+0 0  9998
2 39188   0.0970 340.4632 0002884 103.6237 275.9454  5.00115678237611
O3B FM4                 
1 39189U 13031B   26179.35328890 -.00000022  00000+0  00000+0 0  9994
2 39189   0.0415 346.5777 0005080  96.6888 276.7906  5.00115368237603
O3B FM2                 
1 39190U 13031C   26179.81856001 -.00000021  00000+0  00000+0 0  9996
2 39190   0.0362 342.0080 0002751 111.6917 266.3310  5.00116147237696
O3B PFM                 
1 39191U 13031D   26179.83268059 -.00000021  00000+0  00000+0 0  9999
2 39191   0.0672 349.6035 0005343  99.7881 270.6689  5.00116103237240
ASTRA 2E                
1 39285U 13056A   26179.95248553  .00000162  00000+0  00000+0 0  9995
2 39285   0.0597 334.5972 0002538 131.5204 182.2950  1.00271963 46531
SES-8                   
1 39460U 13071A   26179.96565892 -.00000258  00000+0  00000+0 0  9993
2 39460   0.0269 288.0192 0003090 169.1955 262.4801  1.00271492 44545
ASTRA 5B                
1 39617U 14011B   26179.89862264  .00000149  00000+0  00000+0 0  9995
2 39617   0.0503 329.7759 0002202 113.8083 180.3856  1.00273511 44782
O3B FM3                 
1 40079U 14038A   26179.69947184 -.00000021  00000+0  00000+0 0  9991
2 40079   0.0479 353.2870 0002447 160.3502 206.3745  5.00115773213613
O3B FM7                 
1 40080U 14038B   26179.64559071 -.00000021  00000+0  00000+0 0  9992
2 40080   0.0463 344.4632 0003728  84.6154 290.9605  5.00115744218459
O3B FM6                 
1 40081U 14038C   26179.67256836 -.00000021  00000+0  00000+0 0  9999
2 40081   0.0467 350.1214 0002644 106.1158 263.7923  5.00115818218402
O3B FM8                 
1 40082U 14038D   26179.72581480 -.00000021  00000+0  00000+0 0  9992
2 40082   0.0465 348.8170 0002770 110.2258 260.9878  5.00116133218525
O3B FM10                
1 40348U 14083A   26179.35327812 -.00000022  00000+0  00000+0 0  9994
2 40348   0.0362 329.2241 0003097 126.3803 264.4302  5.00115487210440
O3B FM11                
1 40349U 14083B   26179.96559261 -.00000021  00000+0  00000+0 0  9996
2 40349   0.0553 353.0293 0002640  87.6180 279.3818  5.00115615210490
O3B FM12                
1 40350U 14083C   26179.79270597 -.00000021  00000+0  00000+0 0  9991
2 40350   0.0544 353.2578 0002521 101.4019 265.3684  5.00116033210507
O3B FM9                 
1 40351U 14083D   26179.61964406 -.00000021  00000+0  00000+0 0  9992
2 40351   0.0562 352.4022 0002694 102.8541 264.7737  5.00116097210646
ASTRA 2G                
1 40364U 14089A   26179.95248553  .00000161  00000+0  00000+0 0  9991
2 40364   0.0482 340.5769 0004763 100.1393 207.4178  1.00274610 42088
SES-9                   
1 41380U 16013A   26179.75446442 -.00000334  00000+0  00000+0 0  9997
2 41380   0.0152 327.8732 0002615 122.6354 206.2433  1.00271390 37558
SES-10                  
1 42432U 17017A   26179.79103793 -.00000261  00000+0  00000+0 0  9993
2 42432   0.0170  34.5688 0003037  67.8476  32.3463  1.00271263 33874
SES-15                  
1 42709U 17026A   26179.70741358  .00000072  00000+0  00000+0 0  9995
2 42709   0.0207 337.0696 0000774 104.4728 320.7558  1.00268263  7545
SES-11 (ECHOSTAR 105)   
1 42967U 17063A   26179.99641317 -.00000078  00000+0  00000+0 0  9994
2 42967   0.0271 315.1178 0003011 140.1678  75.5640  1.00271807 31847
SES-14                  
1 43175U 18012B   26179.86619270 -.00000267  00000+0  00000+0 0  9990
2 43175   0.0142  20.1915 0001292  73.3366  87.7596  1.00271609  7149
O3B FM15                
1 43231U 18024A   26179.68645432 -.00000021  00000+0  00000+0 0  9993
2 43231   0.0519   1.0482 0002623  94.0071 264.9738  5.00115876151604
O3B FM16                
1 43232U 18024B   26179.13911255 -.00000022  00000+0  00000+0 0  9994
2 43232   0.0518   5.7458 0002645  88.2033 266.0804  5.00115994151490
O3B FM14                
1 43233U 18024C   26179.77959238 -.00000021  00000+0  00000+0 0  9997
2 43233   0.0506   6.6502 0002889  90.4558 262.9261  5.00115822151532
O3B FM13                
1 43234U 18024D   26176.44781757 -.00000022  00000+0  00000+0 0  9999
2 43234   0.0460 307.2672 0005301 336.5768  76.0961  5.00090867151474
SES-12                  
1 43488U 18049A   26179.84141795 -.00000258  00000+0  00000+0 0  9997
2 43488   0.0120  13.9037 0000335 278.6140  22.3225  1.00272058 29534
O3B FM20                
1 44112U 19020A   26179.60576204 -.00000021  00000+0  00000+0 0  9991
2 44112   0.0523 357.3638 0002412  92.1359 270.5273  5.00115691132131
O3B FM19                
1 44113U 19020B   26179.83266874 -.00000021  00000+0  00000+0 0  9996
2 44113   0.0756 337.4696 0003826 101.6746 280.8982  5.00116046132012
O3B FM17                
1 44114U 19020C   26179.71294759 -.00000021  00000+0  00000+0 0  9997
2 44114   0.0347   9.4219 0002586  86.8998 263.7070  5.00115674132105
O3B FM18                
1 44115U 19020D   26179.85917405 -.00000021  00000+0  00000+0 0  9993
2 44115   0.0526 357.2608 0002776 100.3785 262.3915  5.00115445132231
SES-17                  
1 49332U 21095A   26179.57709441 -.00000261  00000+0  00000+0 0  9998
2 49332   0.0249  41.0662 0001248  53.7397 322.5161  1.00269267 17962
SES-22                  
1 52933U 22071A   26179.70550691  .00000116  00000+0  00000+0 0  9998
2 52933   0.0170 349.5895 0001338  97.7351 304.4442  1.00271188  7637
SES-20                  
1 53960U 22123A   26179.92648976 -.00000090  00000+0  00000+0 0  9997
2 53960   0.0190  57.8844 0002187  27.4610  62.1000  1.00272664 13651
SES-21                  
1 53961U 22123B   26178.99416657  .00000000  00000+0  00000+0 0  9993
2 53961   0.0399  23.3515 0000902  73.4114  46.3054  1.00268187  7324
O3B MPOWER F1           
1 54755U 22174A   26178.58887907 -.00000022  00000+0  00000+0 0  9991
2 54755   0.0510 340.7440 0006515 127.9958 343.4007  5.00114930 65885
O3B MPOWER F2           
1 54756U 22174B   26179.70381542 -.00000021  00000+0  00000+0 0  9990
2 54756   0.0468 340.5221 0005834 112.9070 266.6369  5.00115108 66027
SES-18                  
1 55970U 23038A   26179.92648976 -.00000090  00000+0  00000+0 0  9996
2 55970   0.0311 284.8010 0000684 221.5254   1.1241  1.00272242 12221
SES-19                  
1 55971U 23038B   26179.70628691  .00000099  00000+0  00000+0 0  9993
2 55971   0.0109 346.3443 0002015 113.4059 296.4028  1.00273300 12209
O3B MPOWER F4           
1 56367U 23059A   26179.96795289 -.00000021  00000+0  00000+0 0  9998
2 56367   0.0632 352.6338 0007685 110.6397 256.8116  5.00115578 59187
O3B MPOWER F3           
1 56368U 23059B   26179.80122670 -.00000021  00000+0  00000+0 0  9990
2 56368   0.0639 352.1426 0006712 103.2986 264.6347  5.00116544 55318
O3B MPOWER F5           
1 58346U 23175A   26179.70231681 -.00000021  00000+0  00000+0 0  9999
2 58346   0.0503  10.6134 0005314 105.2322 244.2085  5.00116048 50004
O3B MPOWER F6           
1 58347U 23175B   26179.60289753 -.00000021  00000+0  00000+0 0  9992
2 58347   0.0530   2.3597 0004480  91.7098 265.9810  5.00115990 48916
ASTRA 1P (SES-24)       
1 60086U 24115A   26179.95070561  .00000127  00000+0  00000+0 0  9999
2 60086   0.0578 339.7487 0001998 266.0605  32.7046  1.00237829  7310
O3B MPOWER F7           
1 62362U 24244A   26179.46939252 -.00000021  00000+0  00000+0 0  9992
2 62362   0.0671 346.0002 0006025 107.3674 266.7007  5.00115368 27096
O3B MPOWER F8           
1 62363U 24244B   26179.63622402 -.00000021  00000+0  00000+0 0  9998
2 62363   0.0146 344.5001 0005873 102.1420 273.4243  5.00115191 21442
O3B MPOWER F9           
1 64866U 25153A   26179.56962959 -.00000021  00000+0  00000+0 0  9994
2 64866   0.0596   8.1250 0006535 109.4344 242.5063  5.00115813 20123
O3B MPOWER F10          
1 64867U 25153B   26179.53565359 -.00000022  00000+0  00000+0 0  9996
2 64867   0.0572   4.3282 0002004 247.6945 107.9547  5.00114946 22602
